{"fetched_at":"2026-07-15T17:47:30.557Z","source":"https://celestrak.org/NORAD/elements/gp.php?NAME=SENTINEL&FORMAT=JSON","constellation":"sentinel-3","records":[{"OBJECT_NAME":"SENTINEL-3A","OBJECT_ID":"2016-011A","EPOCH":"2026-07-15T04:45:39.732192","CLASSIFICATION_TYPE":"U","MEAN_MOTION":14.26739765,"ECCENTRICITY":0.000136,"INCLINATION":98.6238,"RA_OF_ASC_NODE":263.1778,"ARG_OF_PERICENTER":89.8744,"MEAN_ANOMALY":270.2592,"EPHEMERIS_TYPE":0,"NORAD_CAT_ID":41335,"ELEMENT_SET_NO":999,"REV_AT_EPOCH":54205,"BSTAR":0.000036608,"MEAN_MOTION_DOT":4.5e-7,"MEAN_MOTION_DDOT":0},{"OBJECT_NAME":"SENTINEL-3B","OBJECT_ID":"2018-039A","EPOCH":"2026-07-15T04:06:59.118048","CLASSIFICATION_TYPE":"U","MEAN_MOTION":14.26736282,"ECCENTRICITY":0.0001135,"INCLINATION":98.6236,"RA_OF_ASC_NODE":263.3004,"ARG_OF_PERICENTER":119.7364,"MEAN_ANOMALY":240.3929,"EPHEMERIS_TYPE":0,"NORAD_CAT_ID":43437,"ELEMENT_SET_NO":999,"REV_AT_EPOCH":42811,"BSTAR":0.000033813,"MEAN_MOTION_DOT":3.8e-7,"MEAN_MOTION_DDOT":0}]}
