SENTINEL-3A             
1 41335U 16011A   26196.19837653  .00000045  00000+0  36608-4 0  9996
2 41335  98.6238 263.1778 0001360  89.8744 270.2592 14.26739765542051
SENTINEL-3B             
1 43437U 18039A   26196.17151757  .00000038  00000+0  33813-4 0  9992
2 43437  98.6236 263.3004 0001135 119.7364 240.3929 14.26736282428112
